{"type": "FeatureCollection", "features": [ {"type": "Feature", "properties": {"norad_id": 31311, "name": "FENGYUN 1C DEB", "group": "fengyun-1c-debris", "lat": -60.89649715962766, "lon": 89.13635959648198, "alt_km": 808.8425641968897, "timestamp": "2025-12-17T10:52:54.635123+00:00", "meta": {"OBJECT_NAME": "FENGYUN 1C DEB", "OBJECT_ID": "1999-025BPP", "EPOCH": "2025-12-17T00:14:39.992640", "MEAN_MOTION": 14.29783165, "ECCENTRICITY": 0.00182682, "INCLINATION": 98.853, "RA_OF_ASC_NODE": 72.4271, "ARG_OF_PERICENTER": 74.3251, "MEAN_ANOMALY": 103.6314, "EPHEMERIS_TYPE": 0, "CLASSIFICATION_TYPE": "U", "NORAD_CAT_ID": 31311, "ELEMENT_SET_NO": 999, "REV_AT_EPOCH": 96282, "BSTAR": 0.0013189311, "MEAN_MOTION_DOT": 3.35e-05, "MEAN_MOTION_DDOT": 0}, "tle": {"line1": "1 31311U 99025BPP 25351.01018510  .00003350  00000+0  13189-2 0  9990", "line2": "2 31311  98.8530  72.4271 0018268  74.3251 103.6314 14.29783165962825"}}, "geometry": {"type": "Point", "coordinates": [89.13635959648198, -60.89649715962766]}}, {"type": "Feature", "properties": {"norad_id": 31312, "name": "FENGYUN 1C DEB", "group": "fengyun-1c-debris", "lat": -26.126036721735257, "lon": -18.630976076026315, "alt_km": 910.7858799281903, "timestamp": "2025-12-17T10:52:54.635133+00:00", "meta": {"OBJECT_NAME": "FENGYUN 1C DEB", "OBJECT_ID": "1999-025BPQ", "EPOCH": "2025-12-15T05:56:52.525824", "MEAN_MOTION": 14.00925702, "ECCENTRICITY": 0.00580012, "INCLINATION": 98.8604, "RA_OF_ASC_NODE": 334.8421, "ARG_OF_PERICENTER": 229.1743, "MEAN_ANOMALY": 146.4845, "EPHEMERIS_TYPE": 0, "CLASSIFICATION_TYPE": "U", "NORAD_CAT_ID": 31312, "ELEMENT_SET_NO": 999, "REV_AT_EPOCH": 95181, "BSTAR": 0.00060391584, "MEAN_MOTION_DOT": 8.73e-06, "MEAN_MOTION_DDOT": 0}, "tle": {"line1": "1 31312U 99025BPQ 25349.24783016  .00000873  00000+0  60392-3 0  9999", "line2": "2 31312  98.8604 334.8421 0058001 229.1743 146.4845 14.00925702951810"}}, "geometry": {"type": "Point", "coordinates": [-18.630976076026315, -26.126036721735257]}}, {"type": "Feature", "properties": {"norad_id": 31313, "name": "FENGYUN 1C DEB", "group": "fengyun-1c-debris", "lat": 19.434154776105938, "lon": -107.7680577332108, "alt_km": 844.9885897777467, "timestamp": "2025-12-17T10:52:54.635159+00:00", "meta": {"OBJECT_NAME": "FENGYUN 1C DEB", "OBJECT_ID": "1999-025BPR", "EPOCH": "2025-12-16T22:58:12.373824", "MEAN_MOTION": 14.22279607, "ECCENTRICITY": 0.00448375, "INCLINATION": 99.0153, "RA_OF_ASC_NODE": 254.9357, "ARG_OF_PERICENTER": 168.9856, "MEAN_ANOMALY": 191.2313, "EPHEMERIS_TYPE": 0, "CLASSIFICATION_TYPE": "U", "NORAD_CAT_ID": 31313, "ELEMENT_SET_NO": 999, "REV_AT_EPOCH": 97122, "BSTAR": 0.000258144, "MEAN_MOTION_DOT": 5.33e-06, "MEAN_MOTION_DDOT": 0}, "tle": {"line1": "1 31313U 99025BPR 25350.95708766  .00000533  00000+0  25814-3 0  9992", "line2": "2 31313  99.0153 254.9357 0044837 168.9856 191.2313 14.22279607971225"}}, "geometry": {"type": "Point", "coordinates": [-107.7680577332108, 19.434154776105938]}}, {"type": "Feature", "properties": {"norad_id": 31314, "name": "FENGYUN 1C DEB", "group": "fengyun-1c-debris", "lat": 43.619043849027655, "lon": 173.8439732500684, "alt_km": 923.1369242322044, "timestamp": "2025-12-17T10:52:54.635172+00:00", "meta": {"OBJECT_NAME": "FENGYUN 1C DEB", "OBJECT_ID": "1999-025BPS", "EPOCH": "2025-12-15T05:15:13.860288", "MEAN_MOTION": 14.04924587, "ECCENTRICITY": 0.00787195, "INCLINATION": 98.8218, "RA_OF_ASC_NODE": 343.1614, "ARG_OF_PERICENTER": 350.4594, "MEAN_ANOMALY": 9.5075, "EPHEMERIS_TYPE": 0, "CLASSIFICATION_TYPE": "U", "NORAD_CAT_ID": 31314, "ELEMENT_SET_NO": 999, "REV_AT_EPOCH": 60849, "BSTAR": 0.00034612113, "MEAN_MOTION_DOT": 5.29e-06, "MEAN_MOTION_DDOT": 0}, "tle": {"line1": "1 31314U 99025BPS 25349.21891042  .00000529  00000+0  34612-3 0  9991", "line2": "2 31314  98.8218 343.1614 0078719 350.4594   9.5075 14.04924587608491"}}, "geometry": {"type": "Point", "coordinates": [173.8439732500684, 43.619043849027655]}}, {"type": "Feature", "properties": {"norad_id": 31319, "name": "FENGYUN 1C DEB", "group": "fengyun-1c-debris", "lat": -45.81473088176948, "lon": 60.72037750959271, "alt_km": 1095.816987045795, "timestamp": "2025-12-17T10:52:54.635182+00:00", "meta": {"OBJECT_NAME": "FENGYUN 1C DEB", "OBJECT_ID": "1999-025BPX", "EPOCH": "2025-12-16T23:38:27.157920", "MEAN_MOTION": 13.75829913, "ECCENTRICITY": 0.01706541, "INCLINATION": 98.8311, "RA_OF_ASC_NODE": 249.4897, "ARG_OF_PERICENTER": 75.6662, "MEAN_ANOMALY": 351.2498, "EPHEMERIS_TYPE": 0, "CLASSIFICATION_TYPE": "U", "NORAD_CAT_ID": 31319, "ELEMENT_SET_NO": 999, "REV_AT_EPOCH": 93746, "BSTAR": 0.00016307029, "MEAN_MOTION_DOT": 1.37e-06, "MEAN_MOTION_DDOT": 0}, "tle": {"line1": "1 31319U 99025BPX 25350.98503655  .00000137  00000+0  16307-3 0  9998", "line2": "2 31319  98.8311 249.4897 0170654  75.6662 351.2498 13.75829913937466"}}, "geometry": {"type": "Point", "coordinates": [60.72037750959271, -45.81473088176948]}}, {"type": "Feature", "properties": {"norad_id": 31321, "name": "FENGYUN 1C DEB", "group": "fengyun-1c-debris", "lat": 77.50827169318698, "lon": 26.27785994078676, "alt_km": 836.4002701620038, "timestamp": "2025-12-17T10:52:54.635193+00:00", "meta": {"OBJECT_NAME": "FENGYUN 1C DEB", "OBJECT_ID": "1999-025BPZ", "EPOCH": "2025-12-16T00:31:45.218496", "MEAN_MOTION": 14.13824932, "ECCENTRICITY": 0.00301337, "INCLINATION": 98.7337, "RA_OF_ASC_NODE": 68.8165, "ARG_OF_PERICENTER": 168.42, "MEAN_ANOMALY": 191.7672, "EPHEMERIS_TYPE": 0, "CLASSIFICATION_TYPE": "U", "NORAD_CAT_ID": 31321, "ELEMENT_SET_NO": 999, "REV_AT_EPOCH": 57430, "BSTAR": 0.00014467223, "MEAN_MOTION_DOT": 2.32e-06, "MEAN_MOTION_DDOT": 0}, "tle": {"line1": "1 31321U 99025BPZ 25350.02205114  .00000232  00000+0  14467-3 0  9996", "line2": "2 31321  98.7337  68.8165 0030133 168.4200 191.7672 14.13824932574303"}}, "geometry": {"type": "Point", "coordinates": [26.27785994078676, 77.50827169318698]}}, {"type": "Feature", "properties": {"norad_id": 31322, "name": "FENGYUN 1C DEB", "group": "fengyun-1c-debris", "lat": 32.47056545762214, "lon": -119.74862099411075, "alt_km": 1137.0745407011045, "timestamp": "2025-12-17T10:52:54.635203+00:00", "meta": {"OBJECT_NAME": "FENGYUN 1C DEB", "OBJECT_ID": "1999-025BQA", "EPOCH": "2025-12-08T23:52:58.153728", "MEAN_MOTION": 13.72994467, "ECCENTRICITY": 0.0238726, "INCLINATION": 98.5739, "RA_OF_ASC_NODE": 47.1579, "ARG_OF_PERICENTER": 20.2617, "MEAN_ANOMALY": 100.4309, "EPHEMERIS_TYPE": 0, "CLASSIFICATION_TYPE": "U", "NORAD_CAT_ID": 31322, "ELEMENT_SET_NO": 999, "REV_AT_EPOCH": 62224, "BSTAR": 0.00026306, "MEAN_MOTION_DOT": 2.61e-06, "MEAN_MOTION_DDOT": 0}, "tle": {"line1": "1 31322U 99025BQA 25342.99511752  .00000261  00000+0  26306-3 0  9999", "line2": "2 31322  98.5739  47.1579 0238726  20.2617 100.4309 13.72994467622248"}}, "geometry": {"type": "Point", "coordinates": [-119.74862099411075, 32.47056545762214]}}, {"type": "Feature", "properties": {"norad_id": 31323, "name": "FENGYUN 1C DEB", "group": "fengyun-1c-debris", "lat": -80.45352779578657, "lon": 129.43220343431454, "alt_km": 827.7851166568526, "timestamp": "2025-12-17T10:52:54.635213+00:00", "meta": {"OBJECT_NAME": "FENGYUN 1C DEB", "OBJECT_ID": "1999-025BQB", "EPOCH": "2025-12-12T20:17:42.698976", "MEAN_MOTION": 14.27591812, "ECCENTRICITY": 0.00313733, "INCLINATION": 99.4214, "RA_OF_ASC_NODE": 25.3246, "ARG_OF_PERICENTER": 79.5452, "MEAN_ANOMALY": 280.9259, "EPHEMERIS_TYPE": 0, "CLASSIFICATION_TYPE": "U", "NORAD_CAT_ID": 31323, "ELEMENT_SET_NO": 999, "REV_AT_EPOCH": 63982, "BSTAR": 0.0021568292, "MEAN_MOTION_DOT": 5.29e-05, "MEAN_MOTION_DDOT": 0}, "tle": {"line1": "1 31323U 99025BQB 25346.84563309  .00005290  00000+0  21568-2 0  9994", "line2": "2 31323  99.4214  25.3246 0031373  79.5452 280.9259 14.27591812639827"}}, "geometry": {"type": "Point", "coordinates": [129.43220343431454, -80.45352779578657]}}, {"type": "Feature", "properties": {"norad_id": 31324, "name": "FENGYUN 1C DEB", "group": "fengyun-1c-debris", "lat": 21.24354616301567, "lon": 96.61314418928627, "alt_km": 866.9884651510474, "timestamp": "2025-12-17T10:52:54.635223+00:00", "meta": {"OBJECT_NAME": "FENGYUN 1C DEB", "OBJECT_ID": "1999-025BQC", "EPOCH": "2025-12-16T13:45:44.310528", "MEAN_MOTION": 14.14697493, "ECCENTRICITY": 0.0049164, "INCLINATION": 99.1237, "RA_OF_ASC_NODE": 272.1325, "ARG_OF_PERICENTER": 293.281, "MEAN_ANOMALY": 66.3192, "EPHEMERIS_TYPE": 0, "CLASSIFICATION_TYPE": "U", "NORAD_CAT_ID": 31324, "ELEMENT_SET_NO": 999, "REV_AT_EPOCH": 96540, "BSTAR": 0.0001595233, "MEAN_MOTION_DOT": 2.64e-06, "MEAN_MOTION_DDOT": 0}, "tle": {"line1": "1 31324U 99025BQC 25350.57342952  .00000264  00000+0  15952-3 0  9996", "line2": "2 31324  99.1237 272.1325 0049164 293.2810  66.3192 14.14697493965406"}}, "geometry": {"type": "Point", "coordinates": [96.61314418928627, 21.24354616301567]}}, {"type": "Feature", "properties": {"norad_id": 31325, "name": "FENGYUN 1C DEB", "group": "fengyun-1c-debris", "lat": 71.19507611048803, "lon": -66.62937162228089, "alt_km": 838.0964193891477, "timestamp": "2025-12-17T10:52:54.635233+00:00", "meta": {"OBJECT_NAME": "FENGYUN 1C DEB", "OBJECT_ID": "1999-025BQD", "EPOCH": "2025-12-16T00:28:47.226720", "MEAN_MOTION": 14.16916577, "ECCENTRICITY": 0.00720659, "INCLINATION": 98.9917, "RA_OF_ASC_NODE": 84.2131, "ARG_OF_PERICENTER": 211.2634, "MEAN_ANOMALY": 148.4244, "EPHEMERIS_TYPE": 0, "CLASSIFICATION_TYPE": "U", "NORAD_CAT_ID": 31325, "ELEMENT_SET_NO": 999, "REV_AT_EPOCH": 59824, "BSTAR": 0.0014956828, "MEAN_MOTION_DOT": 3.033e-05, "MEAN_MOTION_DDOT": 0}, "tle": {"line1": "1 31325U 99025BQD 25350.01999105  .00003033  00000+0  14957-2 0  9994", "line2": "2 31325  98.9917  84.2131 0072065 211.2634 148.4244 14.16916577598249"}}, "geometry": {"type": "Point", "coordinates": [-66.62937162228089, 71.19507611048803]}}]}